SL-3 R/B                
1 13403U 82079B   25326.71344304  .00005524  00000+0  22981-3 0  9991
2 13403  81.1460 319.2636 0025986 164.2305 195.9743 15.23274218361401
SL-14 R/B               
1 13553U 82092B   25326.75554183  .00000608  00000+0  65808-4 0  9998
2 13553  82.5689 241.3990 0018996 298.5876 119.1567 14.86524346313047
SL-3 R/B                
1 13819U 83010B   25326.53994385  .00013848  00000+0  31446-3 0  9992
2 13819  81.1025 133.2610 0018097  60.5612 299.7434 15.42725096341403
SL-3 R/B                
1 14208U 83075B   25326.72014115  .00010179  00000+0  29468-3 0  9996
2 14208  97.6100 322.5405 0020954 250.4883 109.4097 15.35575773313725
COSMOS 1536             
1 14699U 84013A   25326.75879265  .00006111  00000+0  26407-3 0  9992
2 14699  82.5471 213.9727 0013564 304.1363  55.8586 15.22209672256341
SL-14 R/B               
1 14820U 84027B   25326.55470331  .00000511  00000+0  55835-4 0  9998
2 14820  82.5415 345.4874 0017213 332.9865  27.0453 14.85843221231721
SL-8 R/B                
1 15483U 85006B   25326.79005691  .00000305  00000+0  11011-3 0  9999
2 15483  74.0448  97.8370 0017856  36.0022  71.8230 14.37703013138668
SL-12 R/B(2)            
1 15772U 85042D   25326.42550545  .00000057  00000+0  47054-4 0  9994
2 15772  71.1077 314.3368 0037533 291.2082 181.1324 14.21942590 99140
SL-14 R/B               
1 15945U 85069B   25326.50465874  .00000647  00000+0  70574-4 0  9992
2 15945  82.5248 125.7265 0018702 183.0413 177.0693 14.86288441156912
SL-16 R/B               
1 16182U 85097B   25326.59456833  .00000240  00000+0  14452-3 0  9992
2 16182  71.0042   6.0155 0005622  47.0394  67.7896 14.16581015 72063
SL-14 R/B               
1 16496U 86006B   25326.57504610  .00000752  00000+0  77793-4 0  9992
2 16496  82.5277   0.5255 0075194 267.7338  91.5268 14.86631375133291
COSMOS 1743             
1 16719U 86034A   25326.65964031  .00022230  00000+0  38424-3 0  9999
2 16719  82.5356 185.4242 0005830 341.8597  18.2445 15.50809449163621
