CCSDS_OMM_VERS = 2.0
CREATION_DATE  = 
ORIGINATOR     = 

OBJECT_NAME    = SL-3 R/B
OBJECT_ID      = 1982-079B
CENTER_NAME    = EARTH
REF_FRAME      = TEME
TIME_SYSTEM    = UTC
MEAN_ELEMENT_THEORY = SGP/SGP4

EPOCH          = 2025-11-22T17:07:21.478656
MEAN_MOTION    = 15.23274218
ECCENTRICITY   = .0025986
INCLINATION    = 81.1460
RA_OF_ASC_NODE = 319.2636
ARG_OF_PERICENTER = 164.2305
MEAN_ANOMALY   = 195.9743

EPHEMERIS_TYPE = 0
CLASSIFICATION_TYPE = U
NORAD_CAT_ID   = 13403
ELEMENT_SET_NO = 999
REV_AT_EPOCH   = 36140
BSTAR          = .22981E-3
MEAN_MOTION_DOT = .5524E-4
MEAN_MOTION_DDOT = 0

CCSDS_OMM_VERS = 2.0
CREATION_DATE  = 
ORIGINATOR     = 

OBJECT_NAME    = SL-14 R/B
OBJECT_ID      = 1982-092B
CENTER_NAME    = EARTH
REF_FRAME      = TEME
TIME_SYSTEM    = UTC
MEAN_ELEMENT_THEORY = SGP/SGP4

EPOCH          = 2025-11-22T18:07:58.814112
MEAN_MOTION    = 14.86524346
ECCENTRICITY   = .0018996
INCLINATION    = 82.5689
RA_OF_ASC_NODE = 241.3990
ARG_OF_PERICENTER = 298.5876
MEAN_ANOMALY   = 119.1567

EPHEMERIS_TYPE = 0
CLASSIFICATION_TYPE = U
NORAD_CAT_ID   = 13553
ELEMENT_SET_NO = 999
REV_AT_EPOCH   = 31304
BSTAR          = .65808E-4
MEAN_MOTION_DOT = .608E-5
MEAN_MOTION_DDOT = 0

CCSDS_OMM_VERS = 2.0
CREATION_DATE  = 
ORIGINATOR     = 

OBJECT_NAME    = SL-3 R/B
OBJECT_ID      = 1983-010B
CENTER_NAME    = EARTH
REF_FRAME      = TEME
TIME_SYSTEM    = UTC
MEAN_ELEMENT_THEORY = SGP/SGP4

EPOCH          = 2025-11-22T12:57:31.148640
MEAN_MOTION    = 15.42725096
ECCENTRICITY   = .0018097
INCLINATION    = 81.1025
RA_OF_ASC_NODE = 133.2610
ARG_OF_PERICENTER = 60.5612
MEAN_ANOMALY   = 299.7434

EPHEMERIS_TYPE = 0
CLASSIFICATION_TYPE = U
NORAD_CAT_ID   = 13819
ELEMENT_SET_NO = 999
REV_AT_EPOCH   = 34140
BSTAR          = .31446E-3
MEAN_MOTION_DOT = .13848E-3
MEAN_MOTION_DDOT = 0

CCSDS_OMM_VERS = 2.0
CREATION_DATE  = 
ORIGINATOR     = 

OBJECT_NAME    = SL-3 R/B
OBJECT_ID      = 1983-075B
CENTER_NAME    = EARTH
REF_FRAME      = TEME
TIME_SYSTEM    = UTC
MEAN_ELEMENT_THEORY = SGP/SGP4

EPOCH          = 2025-11-22T17:17:00.195360
MEAN_MOTION    = 15.35575773
ECCENTRICITY   = .0020954
INCLINATION    = 97.6100
RA_OF_ASC_NODE = 322.5405
ARG_OF_PERICENTER = 250.4883
MEAN_ANOMALY   = 109.4097

EPHEMERIS_TYPE = 0
CLASSIFICATION_TYPE = U
NORAD_CAT_ID   = 14208
ELEMENT_SET_NO = 999
REV_AT_EPOCH   = 31372
BSTAR          = .29468E-3
MEAN_MOTION_DOT = .10179E-3
MEAN_MOTION_DDOT = 0

CCSDS_OMM_VERS = 2.0
CREATION_DATE  = 
ORIGINATOR     = 

OBJECT_NAME    = COSMOS 1536
OBJECT_ID      = 1984-013A
CENTER_NAME    = EARTH
REF_FRAME      = TEME
TIME_SYSTEM    = UTC
MEAN_ELEMENT_THEORY = SGP/SGP4

EPOCH          = 2025-11-22T18:12:39.684960
MEAN_MOTION    = 15.22209672
ECCENTRICITY   = .0013564
INCLINATION    = 82.5471
RA_OF_ASC_NODE = 213.9727
ARG_OF_PERICENTER = 304.1363
MEAN_ANOMALY   = 55.8586

EPHEMERIS_TYPE = 0
CLASSIFICATION_TYPE = U
NORAD_CAT_ID   = 14699
ELEMENT_SET_NO = 999
REV_AT_EPOCH   = 25634
BSTAR          = .26407E-3
MEAN_MOTION_DOT = .6111E-4
MEAN_MOTION_DDOT = 0

CCSDS_OMM_VERS = 2.0
CREATION_DATE  = 
ORIGINATOR     = 

OBJECT_NAME    = SL-14 R/B
OBJECT_ID      = 1984-027B
CENTER_NAME    = EARTH
REF_FRAME      = TEME
TIME_SYSTEM    = UTC
MEAN_ELEMENT_THEORY = SGP/SGP4

EPOCH          = 2025-11-22T13:18:46.365984
MEAN_MOTION    = 14.85843221
ECCENTRICITY   = .0017213
INCLINATION    = 82.5415
RA_OF_ASC_NODE = 345.4874
ARG_OF_PERICENTER = 332.9865
MEAN_ANOMALY   = 27.0453

EPHEMERIS_TYPE = 0
CLASSIFICATION_TYPE = U
NORAD_CAT_ID   = 14820
ELEMENT_SET_NO = 999
REV_AT_EPOCH   = 23172
BSTAR          = .55835E-4
MEAN_MOTION_DOT = .511E-5
MEAN_MOTION_DDOT = 0

CCSDS_OMM_VERS = 2.0
CREATION_DATE  = 
ORIGINATOR     = 

OBJECT_NAME    = SL-8 R/B
OBJECT_ID      = 1985-006B
CENTER_NAME    = EARTH
REF_FRAME      = TEME
TIME_SYSTEM    = UTC
MEAN_ELEMENT_THEORY = SGP/SGP4

EPOCH          = 2025-11-22T18:57:40.917024
MEAN_MOTION    = 14.37703013
ECCENTRICITY   = .0017856
INCLINATION    = 74.0448
RA_OF_ASC_NODE = 97.8370
ARG_OF_PERICENTER = 36.0022
MEAN_ANOMALY   = 71.8230

EPHEMERIS_TYPE = 0
CLASSIFICATION_TYPE = U
NORAD_CAT_ID   = 15483
ELEMENT_SET_NO = 999
REV_AT_EPOCH   = 13866
BSTAR          = .11011E-3
MEAN_MOTION_DOT = .305E-5
MEAN_MOTION_DDOT = 0

CCSDS_OMM_VERS = 2.0
CREATION_DATE  = 
ORIGINATOR     = 

OBJECT_NAME    = SL-12 R/B(2)
OBJECT_ID      = 1985-042D
CENTER_NAME    = EARTH
REF_FRAME      = TEME
TIME_SYSTEM    = UTC
MEAN_ELEMENT_THEORY = SGP/SGP4

EPOCH          = 2025-11-22T10:12:43.670880
MEAN_MOTION    = 14.21942590
ECCENTRICITY   = .00375332
INCLINATION    = 71.1077
RA_OF_ASC_NODE = 314.3368
ARG_OF_PERICENTER = 291.2082
MEAN_ANOMALY   = 181.1324

EPHEMERIS_TYPE = 0
CLASSIFICATION_TYPE = U
NORAD_CAT_ID   = 15772
ELEMENT_SET_NO = 999
REV_AT_EPOCH   = 9914
BSTAR          = .47054002E-4
MEAN_MOTION_DOT = .57E-6
MEAN_MOTION_DDOT = 0

CCSDS_OMM_VERS = 2.0
CREATION_DATE  = 
ORIGINATOR     = 

OBJECT_NAME    = SL-14 R/B
OBJECT_ID      = 1985-069B
CENTER_NAME    = EARTH
REF_FRAME      = TEME
TIME_SYSTEM    = UTC
MEAN_ELEMENT_THEORY = SGP/SGP4

EPOCH          = 2025-11-22T12:06:42.515136
MEAN_MOTION    = 14.86288441
ECCENTRICITY   = .0018702
INCLINATION    = 82.5248
RA_OF_ASC_NODE = 125.7265
ARG_OF_PERICENTER = 183.0413
MEAN_ANOMALY   = 177.0693

EPHEMERIS_TYPE = 0
CLASSIFICATION_TYPE = U
NORAD_CAT_ID   = 15945
ELEMENT_SET_NO = 999
REV_AT_EPOCH   = 15691
BSTAR          = .70574E-4
MEAN_MOTION_DOT = .647E-5
MEAN_MOTION_DDOT = 0

CCSDS_OMM_VERS = 2.0
CREATION_DATE  = 
ORIGINATOR     = 

OBJECT_NAME    = SL-16 R/B
OBJECT_ID      = 1985-097B
CENTER_NAME    = EARTH
REF_FRAME      = TEME
TIME_SYSTEM    = UTC
MEAN_ELEMENT_THEORY = SGP/SGP4

EPOCH          = 2025-11-22T14:16:10.703712
MEAN_MOTION    = 14.16581015
ECCENTRICITY   = .0005622
INCLINATION    = 71.0042
RA_OF_ASC_NODE = 6.0155
ARG_OF_PERICENTER = 47.0394
MEAN_ANOMALY   = 67.7896

EPHEMERIS_TYPE = 0
CLASSIFICATION_TYPE = U
NORAD_CAT_ID   = 16182
ELEMENT_SET_NO = 999
REV_AT_EPOCH   = 7206
BSTAR          = .14452E-3
MEAN_MOTION_DOT = .24E-5
MEAN_MOTION_DDOT = 0

CCSDS_OMM_VERS = 2.0
CREATION_DATE  = 
ORIGINATOR     = 

OBJECT_NAME    = SL-14 R/B
OBJECT_ID      = 1986-006B
CENTER_NAME    = EARTH
REF_FRAME      = TEME
TIME_SYSTEM    = UTC
MEAN_ELEMENT_THEORY = SGP/SGP4

EPOCH          = 2025-11-22T13:48:03.983040
MEAN_MOTION    = 14.86631375
ECCENTRICITY   = .0075194
INCLINATION    = 82.5277
RA_OF_ASC_NODE = 0.5255
ARG_OF_PERICENTER = 267.7338
MEAN_ANOMALY   = 91.5268

EPHEMERIS_TYPE = 0
CLASSIFICATION_TYPE = U
NORAD_CAT_ID   = 16496
ELEMENT_SET_NO = 999
REV_AT_EPOCH   = 13329
BSTAR          = .77793E-4
MEAN_MOTION_DOT = .752E-5
MEAN_MOTION_DDOT = 0

CCSDS_OMM_VERS = 2.0
CREATION_DATE  = 
ORIGINATOR     = 

OBJECT_NAME    = COSMOS 1743
OBJECT_ID      = 1986-034A
CENTER_NAME    = EARTH
REF_FRAME      = TEME
TIME_SYSTEM    = UTC
MEAN_ELEMENT_THEORY = SGP/SGP4

EPOCH          = 2025-11-22T15:49:52.922784
MEAN_MOTION    = 15.50809449
ECCENTRICITY   = .000583
INCLINATION    = 82.5356
RA_OF_ASC_NODE = 185.4242
ARG_OF_PERICENTER = 341.8597
MEAN_ANOMALY   = 18.2445

EPHEMERIS_TYPE = 0
CLASSIFICATION_TYPE = U
NORAD_CAT_ID   = 16719
ELEMENT_SET_NO = 999
REV_AT_EPOCH   = 16362
BSTAR          = .38424E-3
MEAN_MOTION_DOT = .2223E-3
MEAN_MOTION_DDOT = 0

